[{"OBJECT_NAME":"STARLINK-5680","OBJECT_ID":"2023-015G","EPOCH":"2026-03-09T23:34:41.359296","MEAN_MOTION":15.0253534,"ECCENTRICITY":0.00011534,"INCLINATION":43.0054,"RA_OF_ASC_NODE":324.7768,"ARG_OF_PERICENTER":264.6797,"MEAN_ANOMALY":95.3914,"EPHEMERIS_TYPE":0,"CLASSIFICATION_TYPE":"U","NORAD_CAT_ID":55455,"ELEMENT_SET_NO":999,"REV_AT_EPOCH":17079,"BSTAR":2.6221609e-5,"MEAN_MOTION_DOT":1.51e-6,"MEAN_MOTION_DDOT":0},{"OBJECT_NAME":"CZ-4B DEB","OBJECT_ID":"2006-015C","EPOCH":"2026-03-08T07:50:56.789952","MEAN_MOTION":14.91364963,"ECCENTRICITY":0.00849927,"INCLINATION":97.8628,"RA_OF_ASC_NODE":27.0975,"ARG_OF_PERICENTER":296.8782,"MEAN_ANOMALY":62.3767,"EPHEMERIS_TYPE":0,"CLASSIFICATION_TYPE":"U","NORAD_CAT_ID":29536,"ELEMENT_SET_NO":999,"REV_AT_EPOCH":4888,"BSTAR":0.0026311155,"MEAN_MOTION_DOT":0.00028164,"MEAN_MOTION_DDOT":0}]
